IRNSS-1C                
1 40269U 14061A   24283.41873431 -.00000152  00000+0  00000+0 0  9990
2 40269   4.9487 101.9970 0019852   7.3053 142.9094  1.00274914 36517
GPS BIIF-8  (PRN 03)    
1 40294U 14068A   24283.18257160 -.00000017  00000+0  00000+0 0  9994
2 40294  56.5198  54.8001 0054950  65.6984 294.8779  2.00567099 72838
COSMOS 2501 (702K)      
1 40315U 14075A   24283.16318782  .00000026  00000+0  00000+0 0  9991
2 40315  63.6193 211.7162 0020080 208.8259 151.0836  2.13101379 76720
GPS BIIF-9  (PRN 26)    
1 40534U 15013A   24283.31282219  .00000024  00000+0  00000+0 0  9997
2 40534  53.3084 229.6693 0092242  31.0206 329.5167  2.00558685 69477
GSAT0203 (GALILEO 7)    
1 40544U 15017A   24283.29968717 -.00000078  00000+0  00000+0 0  9993
2 40544  56.9189 358.3692 0005199 247.0304 112.9698  1.70476265 58701
GSAT0204 (GALILEO 8)    
1 40545U 15017B   24282.96761633 -.00000078  00000+0  00000+0 0  9995
2 40545  56.9252 358.3942 0004824 233.0544 126.9567  1.70475838 21745
IRNSS-1D                
1 40547U 15018A   24283.32132623 -.00000274  00000+0  00000+0 0  9998
2 40547  27.2644 250.7288 0018517 193.4355 161.6200  1.00267220 34802
BEIDOU-3S IGSO-1S (C31) 
1 40549U 15019A   24282.44503547 -.00000154  00000+0  00000+0 0  9997
2 40549  50.3636 302.8510 0036280 198.3108 133.4326  1.00280455 34885
GPS BIIF-10 (PRN 08)    
1 40730U 15033A   24283.47445192  .00000010  00000+0  00000+0 0  9990
2 40730  54.4977 292.3861 0096750  19.8912 340.5134  2.00561168 67642
BEIDOU-3S M2S (C58)     
1 40748U 15037A   24283.43404169 -.00000042  00000+0  00000+0 0  9994
2 40748  55.3920 323.1484 0012966 251.9729 107.9472  1.86229144 62659
BEIDOU-3S M1S (C57)     
1 40749U 15037B   24283.16993788 -.00000043  00000+0  00000+0 0  9996
2 40749  55.3948 323.1439 0003491 314.6329  45.4002  1.86227610 62657
GSAT0205 (GALILEO 9)    
1 40889U 15045A   24282.14914868  .00000024  00000+0  00000+0 0  9997
2 40889  55.1715 238.6492 0004059  15.9799 344.0117  1.70473061 56490
GSAT0206 (GALILEO 10)   
1 40890U 15045B   24282.95638612  .00000026  00000+0  00000+0 0  9990
2 40890  55.1707 238.6222 0002403 353.1317   6.8468  1.70473098 56535
BEIDOU-3S IGSO-2S (C56) 
1 40938U 15053A   24283.42134073 -.00000109  00000+0  00000+0 0  9990
2 40938  50.1853 266.0686 0052534 190.3668 170.2380  1.00280407 33182
GPS BIIF-11 (PRN 10)    
1 41019U 15062A   24283.53491100 -.00000016  00000+0  00000+0 0  9997
2 41019  56.4994  54.6407 0099461 224.9349 134.2631  2.00562674 65487
GSAT-15 (GAGAN/PRN 139) 
1 41028U 15065A   24283.38313295 -.00000250  00000+0  00000+0 0  9991
2 41028   0.0131 191.3491 0002309 356.9169  61.6392  1.00268287 32627
GSAT0209 (GALILEO 12)   
1 41174U 15079A   24283.12622964  .00000061  00000+0  00000+0 0  9995
2 41174  55.4760 118.1828 0002358 356.2784   3.7922  1.70474184 54275
GSAT0208 (GALILEO 11)   
1 41175U 15079B   24282.17290252  .00000059  00000+0  00000+0 0  9998
2 41175  55.4748 118.2066 0001918   9.6083 350.4690  1.70474026 54672
IRNSS-1E                
1 41241U 16003A   24283.35276626 -.00000276  00000+0  00000+0 0  9992
2 41241  31.8919  71.7747 0020963 180.4120   5.1180  1.00274627 31901
GPS BIIF-12 (PRN 32)    
1 41328U 16007A   24283.11806612  .00000054  00000+0  00000+0 0  9993
2 41328  55.1745 113.9223 0080965 238.4177 120.8505  2.00556272 63489
COSMOS 2514 (751)       
1 41330U 16008A   24283.14606599 -.00000038  00000+0  00000+0 0  9995
2 41330  65.3549 334.0721 0012989 215.0058 144.9796  2.13102609 67495
IRNSS-1F                
1 41384U 16015A   24282.69362412  .00000169  00000+0  00000+0 0  9998
2 41384   3.8304 113.7761 0020859 176.7070   9.4587  1.00274264 31483
BEIDOU-2 IGSO-6 (C13)   
1 41434U 16021A   24281.84033454 -.00000143  00000+0  00000+0 0  9991
2 41434  59.3500  44.2220 0053809 222.3428 147.3922  1.00292887 31281
IRNSS-1G                
1 41469U 16027A   24283.42794362 -.00000326  00000+0  00000+0 0  9996
2 41469   3.6991 114.8446 0003480  19.7004 167.5930  1.00267543 31001
GSAT0211 (GALILEO 14)   
1 41549U 16030A   24282.88209769  .00000026  00000+0  00000+0 0  9996
2 41549  55.3191 238.6476 0003495 329.7934  30.1680  1.70473152 52165
GSAT0210 (GALILEO 13)   
1 41550U 16030B   24282.55361388  .00000025  00000+0  00000+0 0  9997
2 41550  55.3194 238.6550 0003301 246.6920 113.2537  1.70473507 52158
BEIDOU-2 G7 (C03)       
1 41586U 16037A   24282.35154507 -.00000343  00000+0  00000+0 0  9998
2 41586   1.6465  66.2414 0006571 351.3028 196.8965  1.00264686   706
E 117 W B (WAAS/PRN 131)
1 41589U 16038B   24282.66391102 -.00000002  00000+0  00000+0 0  9992
2 41589   0.0115  65.4591 0000339 208.5086 225.8341  1.00271445 30495
GSAT0207 (GALILEO 15)   
1 41859U 16069A   24281.07346113  .00000058  00000+0  00000+0 0  9992
2 41859  55.1405 118.2134 0001992 326.7776  33.2871  1.70474111 48864
GSAT0212 (GALILEO 16)   
1 41860U 16069B   24279.75448155  .00000057  00000+0  00000+0 0  9994
2 41860  55.1373 118.2460 0002312  31.3112 328.7861  1.70474332 49094
GSAT0213 (GALILEO 17)   
1 41861U 16069C   24283.05575240  .00000060  00000+0  00000+0 0  9993
2 41861  55.1416 118.1615 0001737 279.1910  80.8617  1.70474697 49013
GSAT0214 (GALILEO 18)   
1 41862U 16069D   24280.85478960  .00000057  00000+0  00000+0 0  9996
2 41862  55.1392 118.2161 0000835 290.8141  69.2550  1.70474349 49109
SES-15 (WAAS/PRN 133)   
1 42709U 17026A   24283.40120704  .00000068  00000+0  00000+0 0  9997
2 42709   0.0279  31.9904 0000383 121.9779 239.8365  1.00268537  1265
QZS-2 (QZSS/PRN 194)    
1 42738U 17028A   24282.78471582 -.00000157  00000+0  00000+0 0  9994
2 42738  40.3977 252.1242 0745935 270.6661 277.0043  1.00254309 26943
QZS-3 (QZSS/PRN 199)    
1 42917U 17048A   24283.42750924 -.00000340  00000+0  00000+0 0  9991
2 42917   0.0530 195.6797 0001715 340.3327 123.5190  1.00271446 26085
COSMOS 2522 (752)       
1 42939U 17055A   24282.04737539  .00000032  00000+0  00000+0 0  9994
2 42939  64.0807 212.9102 0008475 239.2210 120.7130  2.13101992 54825
QZS-4 (QZSS/PRN 195)    
1 42965U 17062A   24283.54651803 -.00000292  00000+0  00000+0 0  9995
2 42965  40.4606 351.3439 0750331 270.0510  94.0303  1.00270715 25649
BEIDOU-3 M1 (C19)       
1 43001U 17069A   24282.17254941  .00000029  00000+0  00000+0 0  9991
2 43001  56.1568  83.5011 0007083 303.9524  55.9965  1.86231417 47118
BEIDOU-3 M2 (C20)       
1 43002U 17069B   24283.18397324  .00000037  00000+0  00000+0 0  9996
2 43002  56.1568  83.5029 0005366 342.5565  17.4432  1.86230970 47120
GSAT0215 (GALILEO 19)   
1 43055U 17079A   24283.10382759  .00000026  00000+0  00000+0 0  9991
2 43055  55.2959 238.4619 0002825 278.7749  81.1754  1.70473812 42485
GSAT0216 (GALILEO 20)   
1 43056U 17079B   24282.22226732  .00000024  00000+0  00000+0 0  9990
2 43056  55.2965 238.4860 0004324 283.8945  76.0367  1.70473980 42458
GSAT0217 (GALILEO 21)   
1 43057U 17079C   24283.02937031  .00000026  00000+0  00000+0 0  9993
2 43057  55.2942 238.4624 0003790 298.6471  61.2968  1.70473893 42485
GSAT0218 (GALILEO 22)   
1 43058U 17079D   24282.07625339  .00000024  00000+0  00000+0 0  9991
2 43058  55.2950 238.4861 0004777 279.4720  80.4526  1.70473926 42499
BEIDOU-3 M7 (C27)       
1 43107U 18003A   24283.46903014 -.00000044  00000+0  00000+0 0  9990
2 43107  54.8504 323.6880 0002358  81.9685 278.1195  1.86232482 45882
BEIDOU-3 M8 (C28)       
1 43108U 18003B   24282.87346410 -.00000047  00000+0  00000+0 0  9999
2 43108  54.8438 323.6935 0005037 255.7200 104.2852  1.86230935 45881
BEIDOU-3 M4 (C22)       
1 43207U 18018A   24281.16675447  .00000021  00000+0  00000+0 0  9992
2 43207  56.1145  83.6196 0004468  30.3492 329.6924  1.86231404 45234
BEIDOU-3 M3 (C21)       
1 43208U 18018B   24281.77034119  .00000026  00000+0  00000+0 0  9990
2 43208  56.1144  83.6039 0004937 324.4207  35.5624  1.86231384 45240
BEIDOU-3 M9 (C29)       
1 43245U 18029A   24281.99060902 -.00000048  00000+0  00000+0 0  9991
2 43245  54.7316 321.4363 0002186 244.7909 115.2466  1.86232772 44405
BEIDOU-3 M10 (C30)      
1 43246U 18029B   24282.45706792 -.00000045  00000+0  00000+0 0  9995
2 43246  54.7284 321.4472 0002936 344.2191  15.8317  1.86232937 44406
IRNSS-1I                
1 43286U 18035A   24277.04912406  .00000111  00000+0  00000+0 0  9999
2 43286  29.3595  83.9242 0020531 179.7025 181.5316  1.00278960 23843
COSMOS 2527 (756)       
1 43508U 18053A   24282.94533508  .00000067  00000+0  00000+0 0  9993
2 43508  65.2551  94.5149 0007583 213.5654 146.4188  2.13102325 49146
BEIDOU-2 IGSO-7 (C16)   
1 43539U 18057A   24283.42077674 -.00000121  00000+0  00000+0 0  9994
2 43539  55.1471 168.3947 0077982 232.9479 241.9763  1.00277137 22965
GSAT0221 (GALILEO 25)   
1 43564U 18060A   24279.04457424 -.00000088  00000+0  00000+0 0  9996
2 43564  57.2995 358.5131 0004586 261.2188  98.7822  1.70476338 38600
GSAT0222 (GALILEO 26)   
1 43565U 18060B   24281.02300652 -.00000082  00000+0  00000+0 0  9992
2 43565  57.3029 358.4618 0004866 235.6004 124.4093  1.70475939 38672
GSAT0219 (GALILEO 23)   
1 43566U 18060C   24281.83130464 -.00000080  00000+0  00000+0 0  9992
2 43566  57.3020 358.4418 0003885 265.9145  94.0971  1.70476205 38667
GSAT0220 (GALILEO 24)   
1 43567U 18060D   24282.05200459 -.00000079  00000+0  00000+0 0  9998
2 43567  57.3017 358.4368 0004008 261.8115  98.1990  1.70476155 38657
BEIDOU-3 M5 (C23)       
1 43581U 18062A   24283.21872366  .00000015  00000+0  00000+0 0  9996
2 43581  54.1202 203.2537 0003619 301.2841  58.7108  1.86228728 42163
BEIDOU-3 M6 (C24)       
1 43582U 18062B   24283.08398327  .00000016  00000+0  00000+0 0  9993
2 43582  54.1199 203.2479 0005944  21.2560 338.7992  1.86229835 42166
BEIDOU-3 M12 (C26)      
1 43602U 18067A   24283.01730822  .00000016  00000+0  00000+0 0  9994
2 43602  54.2111 201.9416 0007897  26.4067 333.6663  1.86227678 41642
BEIDOU-3 M11 (C25)      
1 43603U 18067B   24283.15067009  .00000016  00000+0  00000+0 0  9990
2 43603  54.2083 201.9019 0004662  16.9550 343.0934  1.86227177 41671
